ONEWEB-0208             
1 48243U 21031AK  25217.42337188 -.00000226  00000+0 -64425-3 0  9996
2 48243  87.9071 352.5367 0001688  93.6833 266.4490 13.14503446206821
ONEWEB-0200             
1 48244U 21031AL  25217.61525419  .00000046  00000+0  90734-4 0  9995
2 48244  87.9077 352.4903 0001723  95.9749 264.1578 13.14500940206776
ONEWEB-0217             
1 48245U 21031AM  25217.40276367 -.00000146  00000+0 -42947-3 0  9993
2 48245  87.9072 352.5165 0001617  89.9608 270.1707 13.14502396206691
ONEWEB-0211             
1 48767U 21045A   25217.54306463 -.00000004  00000+0 -44412-4 0  9996
2 48767  87.9086 322.0894 0001962  89.2037 270.9318 13.16083003202927
ONEWEB-0223             
1 48768U 21045B   25217.55535073 -.00000106  00000+0 -31683-3 0  9997
2 48768  87.9073 322.1364 0002095  85.5033 274.6336 13.15547840202902
ONEWEB-0230             
1 48769U 21045C   25217.60289801  .00000082  00000+0  18482-3 0  9992
2 48769  87.9071 322.1624 0002034 101.2195 258.9164 13.15548740203172
ONEWEB-0237             
1 48770U 21045D   25217.59180076  .00000112  00000+0  26264-3 0  9997
2 48770  87.9094 322.1519 0002110  90.7613 269.3759 13.15549007202895
ONEWEB-0235             
1 48771U 21045E   25217.56644425  .00000049  00000+0  96091-4 0  9993
2 48771  87.9082 322.1333 0002284  86.0767 274.0625 13.15549933202889
ONEWEB-0242             
1 48772U 21045F   25217.56009192 -.00000028  00000+0 -10929-3 0  9994
2 48772  87.9082 322.1195 0002147  96.1468 263.9907 13.15550422202924
ONEWEB-0241             
1 48773U 21045G   25217.54742348 -.00000082  00000+0 -25305-3 0  9994
2 48773  87.9068 322.1755 0001803  85.3111 274.8225 13.15549714202830
ONEWEB-0243             
1 48774U 21045H   25217.57911995  .00000165  00000+0  40347-3 0  9997
2 48774  87.9089 322.1643 0002262  89.7594 270.3796 13.15548232202864
ONEWEB-0222             
1 48775U 21045J   25217.56248820  .00000016  00000+0  81354-5 0  9997
2 48775  87.9078 322.1227 0001890  93.5011 266.6336 13.15549486202909
ONEWEB-0244             
1 48776U 21045K   25217.58862791  .00000141  00000+0  33994-3 0  9993
2 48776  87.9082 322.0979 0002118  97.7931 262.3440 13.15548079203478
ONEWEB-0247             
1 48777U 21045L   25217.58546290  .00000203  00000+0  50414-3 0  9992
2 48777  87.9080 322.1715 0002609  80.0687 280.0738 13.15547642202914
ONEWEB-0245             
1 48778U 21045M   25217.58070330  .00000176  00000+0  43412-3 0  9999
2 48778  87.9077 322.1357 0001796  92.8464 267.2871 13.15547763204015
ONEWEB-0229             
1 48779U 21045N   25217.57594964  .00000104  00000+0  24301-3 0  9990
2 48779  87.9083 322.1358 0002073  97.0335 263.1031 13.15548110204040
ONEWEB-0228             
1 48780U 21045P   25217.53330977 -.00000014  00000+0 -70829-4 0  9999
2 48780  87.9084 322.1183 0001988  95.4138 264.7219 13.15547907202828
ONEWEB-0232             
1 48781U 21045Q   25217.58388301  .00000183  00000+0  45270-3 0  9995
2 48781  87.9076 322.1023 0001985  98.3000 261.8355 13.15549393203157
ONEWEB-0231             
1 48782U 21045R   25217.56168054 -.00000034  00000+0 -12506-3 0  9998
2 48782  87.9071 322.1601 0002121  91.9272 268.2101 13.15549898202843
ONEWEB-0234             
1 48783U 21045S   25217.59956463  .00000083  00000+0  18545-3 0  9992
2 48783  87.9079 322.1198 0001066 109.9296 250.1949 13.15546110202985
ONEWEB-0238             
1 48784U 21045T   25217.52378625  .00000063  00000+0  13262-3 0  9993
2 48784  87.9075 322.1320 0001588 103.6164 256.5143 13.15547545202870
ONEWEB-0240             
1 48785U 21045U   25217.54505418 -.00000053  00000+0 -17558-3 0  9991
2 48785  87.9082 322.1098 0001812  87.5579 272.5759 13.15549774202902
ONEWEB-0246             
1 48786U 21045V   25217.53949303  .00000012  00000+0 -31747-5 0  9998
2 48786  87.9086 322.1226 0002075  97.0695 263.0671 13.15550960202779
ONEWEB-0210             
1 48787U 21045W   25217.59021007  .00000161  00000+0  39316-3 0  9999
2 48787  87.9083 322.1118 0002545  89.2720 270.8702 13.15548383202824
ONEWEB-0214             
1 48788U 21045X   25217.59893710  .00000142  00000+0  34396-3 0  9990
2 48788  87.9081 322.0989 0002401  95.5985 264.5419 13.15546103202791
ONEWEB-0221             
1 48789U 21045Y   25217.53001194 -.00000976  00000+0 -26270-2 0  9990
2 48789  87.9075 322.1415 0002074  92.0246 268.1122 13.15541891202877
ONEWEB-0213             
1 48790U 21045Z   25217.51890751  .00000181  00000+0  44796-3 0  9995
2 48790  87.9084 322.1511 0002106  92.5634 267.5737 13.15547811202938
ONEWEB-0212             
1 48791U 21045AA  25217.57199071  .00000103  00000+0  24082-3 0  9999
2 48791  87.9077 322.1222 0001876  98.6486 261.4857 13.15549926202930
ONEWEB-0227             
1 48792U 21045AB  25217.57118947  .00000130  00000+0  31233-3 0  9999
2 48792  87.9074 322.1422 0001958  94.3298 265.8056 13.15548817204013
ONEWEB-0226             
1 48793U 21045AC  25217.56484923 -.00000005  00000+0 -46021-4 0  9994
2 48793  87.9083 322.1478 0002264  92.6331 267.5058 13.15550180202852
ONEWEB-0224             
1 48794U 21045AD  25217.60445533  .00001293  00000+0  33987-2 0  9997
2 48794  87.9085 322.1779 0001437  77.3971 282.7319 13.15561510202780
ONEWEB-0233             
1 48795U 21045AE  25217.53300792  .00000105  00000+0  24382-3 0  9998
2 48795  87.9089 322.2000 0001948  87.7409 272.3944 13.15551079202790
ONEWEB-0190             
1 48796U 21045AF  25217.59655342  .00000150  00000+0  36382-3 0  9992
2 48796  87.9086 322.1519 0002350  79.9887 280.1508 13.15547742202877
ONEWEB-0236             
1 48797U 21045AG  25217.53793146  .00000000  00000+0 -34711-4 0  9992
2 48797  87.9092 322.1733 0001828 101.3070 258.8266 13.15549093202757
ONEWEB-0248             
1 48798U 21045AH  25217.55058494 -.00000309  00000+0 -85583-3 0  9990
2 48798  87.9082 322.1249 0001787  77.7700 282.3631 13.15548439202918
ONEWEB-0225             
1 48799U 21045AJ  25217.57277106  .00000058  00000+0  11963-3 0  9996
2 48799  87.9085 322.1524 0002229  82.6361 277.5023 13.15546716202926
ONEWEB-0215             
1 48800U 21045AK  25217.54267011 -.00000021  00000+0 -88641-4 0  9990
2 48800  87.9087 322.1087 0002073  78.1099 282.0264 13.15548733202794
ONEWEB-0216             
1 48801U 21045AL  25217.55219011  .00000048  00000+0  93186-4 0  9996
2 48801  87.9072 322.1518 0002131  98.8127 261.3245 13.15547254202802
ONEWEB-0239             
1 48802U 21045AM  25217.32876400 -.00000041  00000+0 -14366-3 0  9990
2 48802  87.9078 322.2092 0001852  73.0227 287.1106 13.15548110202817
ONEWEB-0249             
1 48967U 21060A   25217.43671544 -.00000101  00000+0 -29818-3 0  9998
2 48967  87.9045 291.7197 0001901  96.5818 263.5530 13.16593728198066
ONEWEB-0250             
1 48968U 21060B   25217.47230823  .00000012  00000+0 -35133-5 0  9993
2 48968  87.9042 290.5030 0001216  78.8527 281.2746 13.25810731198383
ONEWEB-0252             
1 48970U 21060D   25217.46838280 -.00000151  00000+0 -42764-3 0  9997
2 48970  87.9041 291.7063 0002315 101.5580 258.5811 13.16594548198114
ONEWEB-0253             
1 48971U 21060E   25217.45729705  .00000005  00000+0 -21169-4 0  9992
2 48971  87.9043 291.7123 0002095  91.9987 268.1384 13.16596156198043
ONEWEB-0254             
1 48972U 21060F   25217.46681027 -.00000019  00000+0 -83437-4 0  9990
2 48972  87.9043 291.6960 0001925  84.8460 275.2890 13.16595622198048
ONEWEB-0255             
1 48973U 21060G   25217.50479479  .00000079  00000+0  17187-3 0  9994
2 48973  87.9037 291.7184 0001979  89.4510 270.6848 13.16596398198129
ONEWEB-0256             
1 48974U 21060H   25217.45492231  .00000047  00000+0  89444-4 0  9991
2 48974  87.9038 291.7389 0002125 100.3832 259.7539 13.16593343198089
ONEWEB-0257             
1 48975U 21060J   25217.48737725  .00000129  00000+0  30400-3 0  9993
2 48975  87.9041 291.6995 0002160  92.9019 267.2359 13.16596254198042
ONEWEB-0258             
1 48976U 21060K   25217.48897664  .00000072  00000+0  15350-3 0  9997
2 48976  87.9038 291.7239 0001933  97.7471 262.3880 13.16593255198057
ONEWEB-0259             
1 48977U 21060L   25217.55862444  .00000022  00000+0  23873-4 0  9999
2 48977  87.9041 291.6945 0001966  93.1982 266.9374 13.16596046198091
ONEWEB-0260             
1 48978U 21060M   25217.47392399  .00000006  00000+0 -17658-4 0  9995
2 48978  87.9035 291.7369 0002520 101.3151 258.8263 13.16593124198061
ONEWEB-0261             
1 48979U 21060N   25217.44384697  .00000033  00000+0  52650-4 0  9995
2 48979  87.9042 291.7445 0002310  88.6023 271.5373 13.16594323198119
ONEWEB-0262             
1 48980U 21060P   25217.50006635  .00000219  00000+0  53840-3 0  9994
2 48980  87.9042 291.6955 0001811  89.8033 270.3306 13.16594187198082
ONEWEB-0263             
1 48981U 21060Q   25217.45573478  .00000044  00000+0  80449-4 0  9995
2 48981  87.9040 291.7280 0002116  84.3588 275.7784 13.16595048198049
ONEWEB-0264             
1 48982U 21060R   25217.49292755  .00000088  00000+0  19566-3 0  9995
2 48982  87.9036 291.7258 0002064  95.0418 265.0948 13.16592974198053
ONEWEB-0266             
1 48984U 21060T   25217.43831062  .00000085  00000+0  18934-3 0  9996
2 48984  87.9043 291.7117 0001814  98.3348 261.7989 13.16593722198035
ONEWEB-0267             
1 48985U 21060U   25217.44939185  .00000107  00000+0  24672-3 0  9994
2 48985  87.9044 291.7118 0002172  90.9969 269.1411 13.16594408198048
ONEWEB-0268             
1 48986U 21060V   25217.49371089  .00000148  00000+0  35346-3 0  9998
2 48986  87.9042 291.7088 0002152  98.1779 261.9596 13.16596754198310
ONEWEB-0269             
1 48987U 21060W   25217.47471140 -.00000254  00000+0 -69741-3 0  9992
2 48987  87.9037 291.7451 0002004  99.5025 260.6332 13.16593929198083
ONEWEB-0270             
1 48988U 21060X   25217.49212533 -.00000100  00000+0 -29490-3 0  9991
2 48988  87.9037 291.7117 0002073  84.6427 275.4941 13.16594385198122
